[{"OBJECT_NAME":"STARLINK-4723","OBJECT_ID":"2022-111AA","EPOCH":"2026-03-09T19:56:39.443712","MEAN_MOTION":15.08844385,"ECCENTRICITY":0.00013674,"INCLINATION":53.2164,"RA_OF_ASC_NODE":273.0518,"ARG_OF_PERICENTER":89.5075,"MEAN_ANOMALY":270.6074,"EPHEMERIS_TYPE":0,"CLASSIFICATION_TYPE":"U","NORAD_CAT_ID":53797,"ELEMENT_SET_NO":999,"REV_AT_EPOCH":19370,"BSTAR":4.5328823e-5,"MEAN_MOTION_DOT":4.34e-6,"MEAN_MOTION_DDOT":0},{"OBJECT_NAME":"SL-19 R\/B","OBJECT_ID":"2006-031B","EPOCH":"2026-03-09T21:44:36.709152","MEAN_MOTION":15.04470441,"ECCENTRICITY":0.01076308,"INCLINATION":98.2744,"RA_OF_ASC_NODE":54.8592,"ARG_OF_PERICENTER":119.9659,"MEAN_ANOMALY":241.2302,"EPHEMERIS_TYPE":0,"CLASSIFICATION_TYPE":"U","NORAD_CAT_ID":29269,"ELEMENT_SET_NO":999,"REV_AT_EPOCH":6907,"BSTAR":0.00022954365,"MEAN_MOTION_DOT":3.574e-5,"MEAN_MOTION_DDOT":0}]
